{
  "type": "FeatureCollection",
  "features": [
    {
      "type": "Feature",
      "properties": {
        "norad_id": 66534,
        "name": "STARLINK-35976",
        "group": "last-30-days",
        "lat": 36.22610951330595,
        "lon": 91.56110980649771,
        "alt_km": 409.5491788454892,
        "timestamp": "2025-12-15T04:01:19.179330+00:00",
        "meta_object_name": "STARLINK-35976",
        "meta_object_id": "2025-265U",
        "meta_epoch": "2025-12-13T20:50:46.699584",
        "meta_mean_motion": 15.50536189,
        "meta_eccentricity": 0.00014087,
        "meta_inclination": 43.0007,
        "meta_ra_of_asc_node": 47.3346,
        "meta_arg_of_pericenter": 261.6774,
        "meta_mean_anomaly": 98.3926,
        "meta_ephemeris_type": 0,
        "meta_classification_type": "U",
        "meta_norad_cat_id": 66534,
        "meta_element_set_no": 999,
        "meta_rev_at_epoch": 393,
        "meta_bstar": 0.0014328371,
        "meta_mean_motion_dot": 0.00084499,
        "meta_mean_motion_ddot": 0,
        "tle_line1": "1 66534U 25265U   25347.86859606  .00084499  00000+0  14328-2 0  9996",
        "tle_line2": "2 66534  43.0007  47.3346 0001408 261.6774  98.3926 15.50536189  3938"
      },
      "geometry": {
        "type": "Point",
        "coordinates": [
          91.56110980649771,
          36.22610951330595
        ]
      }
    },
    {
      "type": "Feature",
      "properties": {
        "norad_id": 66535,
        "name": "STARLINK-35514",
        "group": "last-30-days",
        "lat": 37.12717790391452,
        "lon": 94.06146277084432,
        "alt_km": 409.35867828731716,
        "timestamp": "2025-12-15T04:01:19.179343+00:00",
        "meta_object_name": "STARLINK-35514",
        "meta_object_id": "2025-265V",
        "meta_epoch": "2025-12-14T04:34:02.658720",
        "meta_mean_motion": 15.50600982,
        "meta_eccentricity": 0.00016388,
        "meta_inclination": 42.9995,
        "meta_ra_of_asc_node": 45.4472,
        "meta_arg_of_pericenter": 259.4336,
        "meta_mean_anomaly": 100.634,
        "meta_ephemeris_type": 0,
        "meta_classification_type": "U",
        "meta_norad_cat_id": 66535,
        "meta_element_set_no": 999,
        "meta_rev_at_epoch": 398,
        "meta_bstar": 0.0020450132,
        "meta_mean_motion_dot": 0.00121606,
        "meta_mean_motion_ddot": 0,
        "tle_line1": "1 66535U 25265V   25348.19030855  .00121606  00000+0  20450-2 0  9996",
        "tle_line2": "2 66535  42.9995  45.4472 0001638 259.4336 100.6340 15.50600982  3981"
      },
      "geometry": {
        "type": "Point",
        "coordinates": [
          94.06146277084432,
          37.12717790391452
        ]
      }
    },
    {
      "type": "Feature",
      "properties": {
        "norad_id": 66536,
        "name": "STARLINK-35640",
        "group": "last-30-days",
        "lat": 37.815197413111235,
        "lon": 96.12056836498247,
        "alt_km": 409.37692950810924,
        "timestamp": "2025-12-15T04:01:19.179353+00:00",
        "meta_object_name": "STARLINK-35640",
        "meta_object_id": "2025-265W",
        "meta_epoch": "2025-12-14T04:33:33.058944",
        "meta_mean_motion": 15.50590877,
        "meta_eccentricity": 0.00014399,
        "meta_inclination": 42.9992,
        "meta_ra_of_asc_node": 45.4445,
        "meta_arg_of_pericenter": 254.1377,
        "meta_mean_anomaly": 105.9325,
        "meta_ephemeris_type": 0,
        "meta_classification_type": "U",
        "meta_norad_cat_id": 66536,
        "meta_element_set_no": 999,
        "meta_rev_at_epoch": 398,
        "meta_bstar": 0.0015283382,
        "meta_mean_motion_dot": 0.00090399,
        "meta_mean_motion_ddot": 0,
        "tle_line1": "1 66536U 25265W   25348.18996596  .00090399  00000+0  15283-2 0  9991",
        "tle_line2": "2 66536  42.9992  45.4445 0001439 254.1377 105.9325 15.50590877  3987"
      },
      "geometry": {
        "type": "Point",
        "coordinates": [
          96.12056836498247,
          37.815197413111235
        ]
      }
    },
    {
      "type": "Feature",
      "properties": {
        "norad_id": 66537,
        "name": "STARLINK-35582",
        "group": "last-30-days",
        "lat": 38.534960347977815,
        "lon": 98.44454543660396,
        "alt_km": 409.0167470701708,
        "timestamp": "2025-12-15T04:01:19.179363+00:00",
        "meta_object_name": "STARLINK-35582",
        "meta_object_id": "2025-265X",
        "meta_epoch": "2025-12-14T04:33:03.611232",
        "meta_mean_motion": 15.50583357,
        "meta_eccentricity": 0.0001471,
        "meta_inclination": 42.9999,
        "meta_ra_of_asc_node": 45.4424,
        "meta_arg_of_pericenter": 276.1313,
        "meta_mean_anomaly": 83.9379,
        "meta_ephemeris_type": 0,
        "meta_classification_type": "U",
        "meta_norad_cat_id": 66537,
        "meta_element_set_no": 999,
        "meta_rev_at_epoch": 398,
        "meta_bstar": 0.0019302166,
        "meta_mean_motion_dot": 0.00114584,
        "meta_mean_motion_ddot": 0,
        "tle_line1": "1 66537U 25265X   25348.18962513  .00114584  00000+0  19302-2 0  9993",
        "tle_line2": "2 66537  42.9999  45.4424 0001471 276.1313  83.9379 15.50583357  3981"
      },
      "geometry": {
        "type": "Point",
        "coordinates": [
          98.44454543660396,
          38.534960347977815
        ]
      }
    },
    {
      "type": "Feature",
      "properties": {
        "norad_id": 66538,
        "name": "STARLINK-35577",
        "group": "last-30-days",
        "lat": 39.200212597814755,
        "lon": 100.78388505152108,
        "alt_km": 409.20466920492345,
        "timestamp": "2025-12-15T04:01:19.179373+00:00",
        "meta_object_name": "STARLINK-35577",
        "meta_object_id": "2025-265Y",
        "meta_epoch": "2025-12-14T04:32:33.653760",
        "meta_mean_motion": 15.50614128,
        "meta_eccentricity": 0.0001646,
        "meta_inclination": 43.001,
        "meta_ra_of_asc_node": 45.4393,
        "meta_arg_of_pericenter": 266.4101,
        "meta_mean_anomaly": 93.6571,
        "meta_ephemeris_type": 0,
        "meta_classification_type": "U",
        "meta_norad_cat_id": 66538,
        "meta_element_set_no": 999,
        "meta_rev_at_epoch": 398,
        "meta_bstar": 0.001426202,
        "meta_mean_motion_dot": 0.00084339,
        "meta_mean_motion_ddot": 0,
        "tle_line1": "1 66538U 25265Y   25348.18927840  .00084339  00000+0  14262-2 0  9992",
        "tle_line2": "2 66538  43.0010  45.4393 0001646 266.4101  93.6571 15.50614128  3987"
      },
      "geometry": {
        "type": "Point",
        "coordinates": [
          100.78388505152108,
          39.200212597814755
        ]
      }
    },
    {
      "type": "Feature",
      "properties": {
        "norad_id": 66539,
        "name": "STARLINK-35697",
        "group": "last-30-days",
        "lat": 39.841931603026445,
        "lon": 103.2732620316737,
        "alt_km": 408.64789237565947,
        "timestamp": "2025-12-15T04:01:19.179383+00:00",
        "meta_object_name": "STARLINK-35697",
        "meta_object_id": "2025-265Z",
        "meta_epoch": "2025-12-14T04:32:04.248384",
        "meta_mean_motion": 15.50597222,
        "meta_eccentricity": 0.00014167,
        "meta_inclination": 43.0002,
        "meta_ra_of_asc_node": 45.4367,
        "meta_arg_of_pericenter": 276.0438,
        "meta_mean_anomaly": 84.0261,
        "meta_ephemeris_type": 0,
        "meta_classification_type": "U",
        "meta_norad_cat_id": 66539,
        "meta_element_set_no": 999,
        "meta_rev_at_epoch": 398,
        "meta_bstar": 0.002306801,
        "meta_mean_motion_dot": 0.00137479,
        "meta_mean_motion_ddot": 0,
        "tle_line1": "1 66539U 25265Z   25348.18893806  .00137479  00000+0  23068-2 0  9995",
        "tle_line2": "2 66539  43.0002  45.4367 0001416 276.0438  84.0261 15.50597222  3980"
      },
      "geometry": {
        "type": "Point",
        "coordinates": [
          103.2732620316737,
          39.841931603026445
        ]
      }
    },
    {
      "type": "Feature",
      "properties": {
        "norad_id": 66540,
        "name": "STARLINK-35818",
        "group": "last-30-days",
        "lat": 40.36854116736502,
        "lon": 105.53853576695033,
        "alt_km": 408.7892210364398,
        "timestamp": "2025-12-15T04:01:19.179394+00:00",
        "meta_object_name": "STARLINK-35818",
        "meta_object_id": "2025-265AA",
        "meta_epoch": "2025-12-14T04:31:34.410144",
        "meta_mean_motion": 15.50598715,
        "meta_eccentricity": 0.00014817,
        "meta_inclination": 42.9976,
        "meta_ra_of_asc_node": 45.4323,
        "meta_arg_of_pericenter": 279.9955,
        "meta_mean_anomaly": 80.0737,
        "meta_ephemeris_type": 0,
        "meta_classification_type": "U",
        "meta_norad_cat_id": 66540,
        "meta_element_set_no": 999,
        "meta_rev_at_epoch": 398,
        "meta_bstar": 0.0017001066,
        "meta_mean_motion_dot": 0.0010076,
        "meta_mean_motion_ddot": 0,
        "tle_line1": "1 66540U 25265AA  25348.18859271  .00100760  00000+0  17001-2 0  9998",
        "tle_line2": "2 66540  42.9976  45.4323 0001481 279.9955  80.0737 15.50598715  3982"
      },
      "geometry": {
        "type": "Point",
        "coordinates": [
          105.53853576695033,
          40.36854116736502
        ]
      }
    }
  ]
}